STARLINK-3050           
1 49180U 21082BC  25102.50081900 -.00003592  00000+0 -29326-3 0  9993
2 49180  70.0021  29.4988 0002651 265.6281  94.4575 14.98348189198038
STARLINK-3059           
1 49181U 21082BD  25102.80565131  .00000500  00000+0  49671-4 0  9990
2 49181  70.0005  48.7345 0002791 270.3727  89.7112 14.98328339197606
STARLINK-3151           
1 49408U 21104A   25102.84373004  .00008189  00000+0  53162-3 0  9997
2 49408  53.2155 274.3750 0001195  81.1623 278.9504 15.08864744189788
STARLINK-3075           
1 49409U 21104B   25102.79125003  .00000700  00000+0  62033-4 0  9995
2 49409  53.2175 274.5776 0001053  96.3721 263.7391 15.08838401188686
STARLINK-3147           
1 49410U 21104C   25102.91732001 -.00000356  00000+0 -42529-5 0  9991
2 49410  53.2161 274.0249 0001219  85.6190 274.4941 15.08839004188699
STARLINK-3162           
1 49411U 21104D   25102.84368680  .00001472  00000+0  11051-3 0  9994
2 49411  53.2167 264.3441 0001455  89.7937 270.3221 15.08849317188827
STARLINK-3157           
1 49413U 21104F   25102.77472228  .00001208  00000+0  93946-4 0  9993
2 49413  53.2170 264.6641 0001324  86.6718 273.4426 15.08846002188814
STARLINK-3146           
1 49414U 21104G   25102.91268198  .00002074  00000+0  14835-3 0  9990
2 49414  53.2164 274.0364 0001256  87.4491 272.6645 15.08848798188690
STARLINK-3159           
1 49415U 21104H   25102.83632675  .00002120  00000+0  15123-3 0  9990
2 49415  53.2168 264.3757 0001491  85.7148 274.4015 15.08845390188814
STARLINK-3133           
1 49416U 21104J   25102.83908429  .00001411  00000+0  10669-3 0  9996
2 49416  53.2161 274.3669 0001321  90.5624 269.5520 15.08844357188689
STARLINK-3154           
1 49417U 21104K   25102.79948648  .00001120  00000+0  88457-4 0  9997
2 49417  53.2168 264.1943 0001150  91.1400 268.9724 15.08839595188810
STARLINK-3111           
1 49418U 21104L   25102.83542091  .00000968  00000+0  78913-4 0  9990
2 49418  53.2168 274.3807 0001117  99.4578 260.6540 15.08836711188679
STARLINK-3120           
1 49419U 21104M   25102.89060507  .00000617  00000+0  56840-4 0  9990
2 49419  53.2165 274.1341 0001409  91.8430 268.2724 15.08843948188684
STARLINK-3110           
1 49420U 21104N   25102.89797018  .00000608  00000+0  56281-4 0  9995
2 49420  53.2165 274.1020 0001341  92.2133 267.9013 15.08838119188681
STARLINK-3112           
1 49421U 21104P   25102.86483329  .00004101  00000+0  27546-3 0  9993
2 49421  53.2170 274.0578 0001208 103.6251 256.4876 15.08858746188683
STARLINK-3161           
1 49422U 21104Q   25102.85848957  .00000679  00000+0  60728-4 0  9991
2 49422  53.2174 274.5946 0001267  97.0044 263.1093 15.08837474188673
STARLINK-3149           
1 49423U 21104R   25102.82807569  .00000226  00000+0  32290-4 0  9994
2 49423  53.2161 274.6072 0001245  93.6911 266.4223 15.08847099188677
STARLINK-3135           
1 49424U 21104S   25102.88692309  .00001138  00000+0  89592-4 0  9995
2 49424  53.2159 274.1501 0001377  89.2446 270.8704 15.08846638188689
STARLINK-3139           
1 49425U 21104T   25102.87316506  .00001047  00000+0  83864-4 0  9992
2 49425  53.2170 274.2228 0001389  87.6036 272.5115 15.08842996188699
STARLINK-3114           
1 49426U 21104U   25102.87957077  .00000693  00000+0  61635-4 0  9995
2 49426  53.2175 274.1833 0001418  95.9310 264.1844 15.08838875188682
STARLINK-3131           
1 49427U 21104V   25102.80324316  .00001551  00000+0  11551-3 0  9998
2 49427  53.2164 274.5365 0001340  87.3344 272.7802 15.08845239188682
STARLINK-3121           
1 49428U 21104W   25102.85012069  .00001337  00000+0  10209-3 0  9994
2 49428  53.2170 274.2290 0001185  88.4322 271.6805 15.08839209188691
STARLINK-3138           
1 49430U 21104Y   25102.89159525  .00000977  00000+0  79456-4 0  9999
2 49430  53.2164 274.4092 0001394  94.7069 265.4082 15.08843157188694
STARLINK-3153           
1 49431U 21104Z   25102.84279125  .00002864  00000+0  19791-3 0  9996
2 49431  53.2165 274.5331 0001226  93.1761 266.9372 15.08851873189771
STARLINK-3158           
1 49432U 21104AA  25102.76367444  .00004037  00000+0  27142-3 0  9993
2 49432  53.2160 264.7029 0001401  98.2272 261.8879 15.08863130188819
STARLINK-3079           
1 49433U 21104AB  25102.82986947  .00003291  00000+0  22465-3 0  9990
2 49433  53.2168 254.4067 0001261 102.8132 257.3001 15.08859618190059
STARLINK-3134           
1 49434U 21104AC  25102.74341921  .00004404  00000+0  29450-3 0  9997
2 49434  53.2165 274.9479 0001149  96.0633 264.0490 15.08857259189757
STARLINK-3117           
1 49435U 21104AD  25102.83452556  .00000420  00000+0  44499-4 0  9990
2 49435  53.2170 254.3868 0001421  86.5528 273.5627 15.08840927188961
STARLINK-3049           
1 49436U 21104AE  25102.83356729 -.00000020  00000+0  16820-4 0  9990
2 49436  53.2161 254.3914 0001351  90.2087 269.9059 15.08839830188967
STARLINK-3130           
1 49437U 21104AF  25102.75996436  .00000087  00000+0  23537-4 0  9992
2 49437  53.2170 254.7215 0001469  97.6439 262.4720 15.08844256188958
STARLINK-3044           
1 49438U 21104AG  25102.74987271 -.00004632  00000+0 -27299-3 0  9999
2 49438  53.2160 254.6974 0001426 124.1830 235.9298 15.08860629188950
STARLINK-3105           
1 49440U 21104AJ  25102.75260902  .00000916  00000+0  75614-4 0  9992
2 49440  53.2170 254.7517 0001369  91.2965 268.8184 15.08843116188958
STARLINK-3128           
1 49441U 21104AK  25102.66796812  .00000123  00000+0  25780-4 0  9996
2 49441  53.2162 255.1350 0000844 104.0973 256.0113 15.08850727188945
STARLINK-3098           
1 49442U 21104AL  25102.74893531  .00001215  00000+0  94397-4 0  9995
2 49442  53.2163 254.7706 0001466  86.7131 273.4028 15.08838713188950
STARLINK-3136           
1 49443U 21104AM  25102.66429497  .00001668  00000+0  12293-3 0  9999
2 49443  53.2158 255.1515 0001266  81.0232 279.0904 15.08825888188949
STARLINK-3126           
1 49444U 21104AN  25102.74620653  .00001825  00000+0  13274-3 0  9991
2 49444  53.2164 254.7910 0001388  85.7688 274.3463 15.08841898188950
STARLINK-3122           
1 49445U 21104AP  25102.86309368  .00001507  00000+0  11274-3 0  9997
2 49445  53.2163 264.6525 0001382  94.3796 265.7354 15.08840216188824
STARLINK-3099           
1 49446U 21104AQ  25102.74158522  .00000366  00000+0  41078-4 0  9997
2 49446  53.2173 254.7998 0001447  84.7197 275.3960 15.08832110188958
STARLINK-3115           
1 49447U 21104AR  25102.88418424 -.00000139  00000+0  93573-5 0  9990
2 49447  53.2155 264.1653 0001309  85.3268 274.7873 15.08826903189900
STARLINK-3137           
1 49449U 21104AT  25102.88049201  .00000675  00000+0  60505-4 0  9997
2 49449  53.2164 264.1904 0001398  97.3813 262.7338 15.08837882188830
STARLINK-3127           
1 49450U 21104AU  25102.82528903 -.00003461  00000+0 -19937-3 0  9994
2 49450  53.2171 264.4673 0001334  87.5908 272.5237 15.08859274189086
STARLINK-3125           
1 49451U 21104AV  25102.87680556  .00000846  00000+0  71207-4 0  9994
2 49451  53.2157 264.1971 0001380  87.8664 272.2486 15.08840484188830
STARLINK-3150           
1 49452U 21104AW  25102.86673125  .00000928  00000+0  76405-4 0  9994
2 49452  53.2169 264.2796 0001085  94.1653 265.9463 15.08838826189912
STARLINK-3129           
1 49453U 21104AX  25102.87777233  .00001511  00000+0  11299-3 0  9999
2 49453  53.2167 264.2808 0001380  96.8107 263.3043 15.08842932188835
STARLINK-3160           
1 49454U 21104AY  25102.80688504 -.00000124  00000+0  10322-4 0  9992
2 49454  53.2165 264.5115 0001108  95.8574 264.2544 15.08848260188828
STARLINK-3145           
1 49455U 21104AZ  25102.85841295  .00002201  00000+0  15629-3 0  9997
2 49455  53.2168 264.2781 0001392  91.5044 268.6108 15.08847783188832
STARLINK-3124           
1 49456U 21104BA  25102.80416709  .00001158  00000+0  90803-4 0  9999
2 49456  53.2166 264.5706 0001335  93.3626 266.7518 15.08844098188823
STARLINK-3132           
1 49457U 21104BB  25102.85568430 -.00001655  00000+0 -85917-4 0  9998
2 49457  53.2167 264.3005 0001350  84.9031 275.2115 15.08839481188837
STARLINK-3156           
1 49458U 21104BC  25102.86209247  .00006690  00000+0  43799-3 0  9991
2 49458  53.2161 264.2610 0001504  85.0335 275.0829 15.08844216189915
STARLINK-3141           
1 49459U 21104BD  25102.78481023  .00007379  00000+0  48087-3 0  9997
2 49459  53.2161 264.6114 0001311  87.5491 272.5651 15.08865799188828
STARLINK-3140           
1 49460U 21104BE  25102.78112460  .00002710  00000+0  18827-3 0  9998
2 49460  53.2169 264.6282 0001231  81.2275 278.8856 15.08846420188811
STARLINK-3219           
1 49724U 21115A   25102.58520352  .00000871  00000+0  72782-4 0  9991
2 49724  53.2162 195.7287 0001383  88.7287 271.3864 15.08837097185543
STARLINK-3218           
1 49725U 21115B   25102.60726038  .00001311  00000+0  10045-3 0  9997
2 49725  53.2167 195.5084 0001404  96.7081 263.4070 15.08846177185558
STARLINK-3242           
1 49727U 21115D   25102.69464139  .00001381  00000+0  10480-3 0  9999
2 49727  53.2171 205.0151 0001682 102.5627 257.5554 15.08850510185420
STARLINK-3240           
1 49728U 21115E   25102.63208530  .00001907  00000+0  13788-3 0  9993
2 49728  53.2152 205.2944 0001343  82.7290 277.3855 15.08845511185419
STARLINK-3251           
1 49729U 21115F   25102.69095934  .00001034  00000+0  83083-4 0  9999
2 49729  53.2158 204.9136 0001778 104.9010 255.2179 15.08836825185427
STARLINK-3249           
1 49730U 21115G   25102.66155148  .00007639  00000+0  49733-3 0  9992
2 49730  53.2156 205.3566 0001251  88.2146 271.8990 15.08854074185419
STARLINK-3246           
1 49732U 21115J   25102.60266629  .00001364  00000+0  10379-3 0  9998
2 49732  53.2156 205.5803 0001771  94.9377 265.1817 15.08843137185405
STARLINK-3252           
1 49733U 21115K   25102.58056543  .00021234  00000+0  13492-2 0  9994
2 49733  53.2166 205.5269 0001166 103.4891 256.6231 15.08813937185408
